NORAD_CAT_ID,OBJECT_NAME,OBJECT_TYPE,EPOCH,MEAN_MOTION,ECCENTRICITY,INCLINATION,RA_OF_ASC_NODE,ARG_OF_PERICENTER,MEAN_ANOMALY,BSTAR,MEAN_MOTION_DOT,MEAN_MOTION_DDOT,TLE_LINE0,TLE_LINE1,TLE_LINE2,SEMIMAJOR_AXIS,PERIOD,APOGEE,PERIGEE,DECAYED
52345.0,STARLINK-3852,PAYLOAD,2022-06-20 22:00:00,15.54819447,0.0001277,53.2173,179.4885,63.2504,217.1624,-0.01146,-0.00711298,0.0,0 STARLINK-3852,1 52345U 22045Q   22171.91667824 -.00711298  00000-0 -11460-1 0  9991,2 52345  53.2173 179.4885 0001277  63.2504 217.1624 15.54819447 10711,6780.815,92.615,403.545,401.814,0.0
52345.0,STARLINK-3852,PAYLOAD,2022-06-21 14:00:01,15.53801568,0.000117,53.2171,176.2776,59.065,353.802,-0.011934,-0.00713278,0.0,0 STARLINK-3852,1 52345U 22045Q   22172.58334491 -.00713278  00000-0 -11934-1 0  9992,2 52345  53.2171 176.2776 0001170  59.0650 353.8020 15.53801568  1307,6783.776,92.676,406.434,404.847,0.0
52345.0,STARLINK-3852,PAYLOAD,2022-06-21 22:00:00,15.53291266,0.0001323,53.2172,174.6714,54.3063,63.8713,-0.012181,-0.00714489,0.0,0 STARLINK-3852,1 52345U 22045Q   22172.91667824 -.00714489  00000-0 -12181-1 0  9998,2 52345  53.2172 174.6714 0001323  54.3063  63.8713 15.53291266  1303,6785.261,92.706,408.024,406.229,0.0
52345.0,STARLINK-3852,PAYLOAD,2022-06-22 00:00:02,15.53163231,0.0001402,53.2174,174.2703,63.3655,161.108,-0.012184,-0.00711609,0.0,0 STARLINK-3852,1 52345U 22045Q   22173.00002315 -.00711609  00000-0 -12184-1 0  9991,2 52345  53.2174 174.2703 0001402  63.3655 161.1080 15.53163231 10886,6785.634,92.714,408.45,406.548,0.0
52345.0,STARLINK-3852,PAYLOAD,2022-06-22 14:00:01,15.52272959,0.0001288,53.2172,171.4675,70.285,176.6707,-0.012674,-0.00716201,0.0,0 STARLINK-3852,1 52345U 22045Q   22173.58334491 -.00716201  00000-0 -12674-1 0  9994,2 52345  53.2172 171.4675 0001288  70.2850 176.6707 15.52272959  1308,6788.228,92.767,410.968,409.219,0.0
52345.0,STARLINK-3852,PAYLOAD,2022-06-22 22:00:00,15.51759153,0.0001247,53.2173,169.865,63.2304,247.1983,-0.012794,-0.00710207,0.0,0 STARLINK-3852,1 52345U 22045Q   22173.91667824 -.00710207  00000-0 -12794-1 0  9993,2 52345  53.2173 169.8650 0001247  63.2304 247.1983 15.51759153  1309,6789.727,92.798,412.43800000000016,410.745,0.0
52345.0,STARLINK-3852,PAYLOAD,2022-06-23 06:00:00,15.5125203,0.0001402,53.2174,168.2673,47.2186,326.0655,-0.013108,-0.00723287,0.0,0 STARLINK-3852,1 52345U 22045Q   22174.25001157 -.00723287  00000-0 -13108-1 0  9994,2 52345  53.2174 168.2673 0001402  47.2186 326.0655 15.51252030 11082,6791.206,92.828,414.024,412.119,0.0
52345.0,STARLINK-3852,PAYLOAD,2022-06-23 14:00:01,15.50741499,0.0001244,53.2173,166.6686,55.9505,19.5793,-0.013323,-0.00721894,0.0,0 STARLINK-3852,1 52345U 22045Q   22174.58334491 -.00721894  00000-0 -13323-1 0  9991,2 52345  53.2173 166.6686 0001244  55.9505  19.5793 15.50741499  1304,6792.696999999999,92.859,415.407,413.717,0.0
52345.0,STARLINK-3852,PAYLOAD,2022-06-23 22:00:00,15.50231477,0.0001429,53.2174,165.0699,53.0994,84.0636,-0.013582,-0.00722612,0.0,0 STARLINK-3852,1 52345U 22045Q   22174.91667824 -.00722612  00000-0 -13582-1 0  9993,2 52345  53.2174 165.0699 0001429  53.0994  84.0636 15.50231477  1301,6794.187,92.889,417.023,415.081,0.0
52345.0,STARLINK-3852,PAYLOAD,2022-06-24 06:00:02,15.49720098,0.0001673,53.2174,163.4757,46.3749,151.8716,-0.013774,-0.00719865,0.0,0 STARLINK-3852,1 52345U 22045Q   22175.25002315 -.00719865  00000-0 -13774-1 0  9998,2 52345  53.2174 163.4757 0001673  46.3749 151.8716 15.49720098 11237,6795.681,92.92,418.6830000000001,416.409,0.0
52345.0,STARLINK-3852,PAYLOAD,2022-06-24 14:00:01,15.49212799,0.0001358,53.2172,161.8805,62.4714,196.1168,-0.014124,-0.00724569,0.0,0 STARLINK-3852,1 52345U 22045Q   22175.58334491 -.00724569  00000-0 -14124-1 0  9994,2 52345  53.2172 161.8805 0001358  62.4714 196.1168 15.49212799  1306,6797.165,92.95,419.953,418.107,0.0
52345.0,STARLINK-3852,PAYLOAD,2022-06-24 22:00:01,15.48699346,0.0001252999999999,53.2174,160.2857,65.0774,253.371,-0.014252,-0.00718454,0.0,0 STARLINK-3852,1 52345U 22045Q   22175.91668981 -.00718454  00000-0 -14252-1 0  9993,2 52345  53.2174 160.2857 0001253  65.0774 253.3710 15.48699346  1302,6798.667,92.981,421.384,419.68,0.0
52345.0,STARLINK-3852,PAYLOAD,2022-06-25 06:00:00,15.48192664,0.000128,53.2174,158.6954,54.8221,322.7405,-0.014623,-0.00723712,0.0,0 STARLINK-3852,1 52345U 22045Q   22176.25001157 -.00723712  00000-0 -14623-1 0  9992,2 52345  53.2174 158.6954 0001280  54.8221 322.7405 15.48192664 11397,6800.15,93.012,422.886,421.145,0.0
52345.0,STARLINK-3852,PAYLOAD,2022-06-25 14:00:01,15.47681164,0.0001269,53.2172,157.1038,55.3503,20.7817,-0.014825,-0.00720886,0.0,0 STARLINK-3852,1 52345U 22045Q   22176.58334491 -.00720886  00000-0 -14825-1 0  9991,2 52345  53.2172 157.1038 0001269  55.3503  20.7817 15.47681164  1307,6801.648,93.042,424.377,422.65,0.0
52345.0,STARLINK-3852,PAYLOAD,2022-06-25 22:00:00,15.4717105,0.0001436,53.2173,155.5127,54.3388,79.7492,-0.01508,-0.00720396,0.0,0 STARLINK-3852,1 52345U 22045Q   22176.91667824 -.00720396  00000-0 -15080-1 0  9997,2 52345  53.2173 155.5127 0001436  54.3388  79.7492 15.47171050  1306,6803.143,93.073,425.985,424.031,0.0
52345.0,STARLINK-3852,PAYLOAD,2022-06-26 14:00:01,15.46152828,0.0001343,53.2173,152.3377,64.4418,183.7827,-0.015706,-0.00723919,0.0,0 STARLINK-3852,1 52345U 22045Q   22177.58335648 -.00723919  00000-0 -15706-1 0  9996,2 52345  53.2173 152.3377 0001343  64.4418 183.7827 15.46152828 11592,6806.13,93.134,428.909,427.081,0.0
52345.0,STARLINK-3852,PAYLOAD,2022-06-26 22:00:00,15.45639652,0.0001293,53.2174,150.7504,63.3322,240.9464,-0.015833,-0.00717446,0.0,0 STARLINK-3852,1 52345U 22045Q   22177.91667824 -.00717446  00000-0 -15833-1 0  9996,2 52345  53.2174 150.7504 0001293  63.3322 240.9464 15.45639652  1308,6807.636,93.165,430.381,428.621,0.0
52345.0,STARLINK-3852,PAYLOAD,2022-06-27 14:00:01,15.44621598,0.0001233,53.2174,147.5828,56.2592,358.4145,-0.016486,-0.00721047,0.0,0 STARLINK-3852,1 52345U 22045Q   22178.58334491 -.00721047  00000-0 -16486-1 0  9998,2 52345  53.2174 147.5828 0001233  56.2592 358.4145 15.44621598  1305,6810.627,93.227,433.332,431.652,0.0
52345.0,STARLINK-3852,PAYLOAD,2022-06-27 22:00:00,15.44110366,0.0001394,53.2176,145.9994,55.3454,53.6078,-0.016709,-0.00718374,0.0,0 STARLINK-3852,1 52345U 22045Q   22178.91667824 -.00718374  00000-0 -16709-1 0  9991,2 52345  53.2176 145.9994 0001394  55.3454  53.6078 15.44110366 11809,6812.13,93.258,434.945,433.046,0.0
52345.0,STARLINK-3852,PAYLOAD,2022-06-28 14:00:01,15.43092958,0.0001411,53.2173,142.8385,63.0925,152.579,-0.0174229999999999,-0.00723208,0.0,0 STARLINK-3852,1 52345U 22045Q   22179.58334491 -.00723208  00000-0 -17423-1 0  9992,2 52345  53.2173 142.8385 0001411  63.0925 152.5790 15.43092958  1304,6815.124,93.319,437.951,436.028,0.0
52345.0,STARLINK-3852,PAYLOAD,2022-06-28 22:00:00,15.42580912,0.0001375,53.2176,141.2591,64.1314,203.9811,-0.017601,-0.00718425,0.0,0 STARLINK-3852,1 52345U 22045Q   22179.91667824 -.00718425  00000-0 -17601-1 0  9991,2 52345  53.2176 141.2591 0001375  64.1314 203.9811 15.42580912  1308,6816.632,93.35,439.435,437.56,0.0
52345.0,STARLINK-3852,PAYLOAD,2022-06-29 06:00:00,15.42071497,0.0001446,53.2174,139.6835,50.5253,269.467,-0.017955,-0.00720259,0.0,0 STARLINK-3852,1 52345U 22045Q   22180.25001157 -.00720259  00000-0 -17955-1 0  9991,2 52345  53.2174 139.6835 0001446  50.5253 269.4670 15.42071497 12011,6818.134,93.381,440.984,439.013,0.0
52345.0,STARLINK-3852,PAYLOAD,2022-06-29 14:00:01,15.415617,0.0001244,53.2173,138.1055,58.4252,312.7831,-0.018289,-0.0072109999999999,0.0,0 STARLINK-3852,1 52345U 22045Q   22180.58334491 -.00721100  00000-0 -18289-1 0  9994,2 52345  53.2173 138.1055 0001244  58.4252 312.7831 15.41561700  1301,6819.637,93.412,442.35,440.653,0.0
52345.0,STARLINK-3852,PAYLOAD,2022-06-29 22:00:00,15.41049775,0.0001295,53.2175,136.5298,60.5301,1.281,-0.018494,-0.00717118,0.0,0 STARLINK-3852,1 52345U 22045Q   22180.91667824 -.00717118  00000-0 -18494-1 0  9992,2 52345  53.2175 136.5298 0001295  60.5301   1.2810 15.41049775  1309,6821.147,93.443,443.895,442.128,0.0
52345.0,STARLINK-3852,PAYLOAD,2022-06-30 06:00:00,15.4054044,0.0001522,53.2174,134.9578,50.4904,61.3086,-0.018845,-0.00718353,0.0,0 STARLINK-3852,1 52345U 22045Q   22181.25001157 -.00718353  00000-0 -18845-1 0  9993,2 52345  53.2174 134.9578 0001522  50.4904  61.3086 15.40540440 12163,6822.65,93.474,445.554,443.477,0.0
52345.0,STARLINK-3852,PAYLOAD,2022-06-30 14:00:01,15.40031561,0.0001369,53.2173,133.3835,63.7064,97.4698,-0.019216,-0.00720046,0.0,0 STARLINK-3852,1 52345U 22045Q   22181.58334491 -.00720046  00000-0 -19216-1 0  9994,2 52345  53.2173 133.3835 0001369  63.7064  97.4698 15.40031561  1306,6824.153,93.505,446.952,445.084,0.0
52345.0,STARLINK-3852,PAYLOAD,2022-06-30 22:00:00,15.39519915,0.0001439,53.2174,131.8116,61.8018,148.1386,-0.019448,-0.00716763,0.0,0 STARLINK-3852,1 52345U 22045Q   22181.91667824 -.00716763  00000-0 -19448-1 0  9998,2 52345  53.2174 131.8116 0001439  61.8018 148.1386 15.39519915  1308,6825.665,93.536,448.512,446.548,0.0
52345.0,STARLINK-3852,PAYLOAD,2022-07-01 06:00:00,15.3900943,0.0001448,53.2174,130.2431,58.7308,199.3597,-0.019752,-0.00715872,0.0,0 STARLINK-3852,1 52345U 22045Q   22182.25001157 -.00715872  00000-0 -19752-1 0  9995,2 52345  53.2174 130.2431 0001448  58.7308 199.3597 15.39009430 12320,6827.174,93.567,450.028,448.051,0.0
52345.0,STARLINK-3852,PAYLOAD,2022-07-01 14:00:01,15.38502521,0.0001228,53.2174,128.6724,68.8224,236.8063,-0.020265,-0.00721801,0.0,0 STARLINK-3852,1 52345U 22045Q   22182.58334491 -.00721801  00000-0 -20265-1 0  9991,2 52345  53.2174 128.6724 0001228  68.8224 236.8063 15.38502521  1300,6828.674,93.598,451.377,449.7,0.0
52345.0,STARLINK-3852,PAYLOAD,2022-07-01 22:00:00,15.37991181,0.0001291999999999,53.2174,127.1042,59.8543,292.7001,-0.02051,-0.00718643,0.0,0 STARLINK-3852,1 52345U 22045Q   22182.91667824 -.00718643  00000-0 -20510-1 0  9990,2 52345  53.2174 127.1042 0001292  59.8543 292.7001 15.37991181  1308,6830.187,93.629,452.935,451.17,0.0
